TANSTAAFL-2             
1 62378U 24247B   26067.20753490  .00013897  00000+0  50872-3 0  9998
2 62378  44.9880 125.0934 0003072 298.8909  61.1666 15.28016845 67506
STARLINK-35491          
1 66113U 25236AD  26068.51550340  .00031995  00000+0  10876-2 0  9990
2 66113  53.1579 104.9837 0001120  75.3909 284.7216 15.30202633 22917
