[{"OBJECT_NAME":"TANSTAAFL-2","OBJECT_ID":"2024-247B","EPOCH":"2026-03-08T04:58:51.015360","MEAN_MOTION":15.28016845,"ECCENTRICITY":0.00030723,"INCLINATION":44.988,"RA_OF_ASC_NODE":125.0934,"ARG_OF_PERICENTER":298.8909,"MEAN_ANOMALY":61.1666,"EPHEMERIS_TYPE":0,"CLASSIFICATION_TYPE":"U","NORAD_CAT_ID":62378,"ELEMENT_SET_NO":999,"REV_AT_EPOCH":6750,"BSTAR":0.00050871624,"MEAN_MOTION_DOT":0.00013897,"MEAN_MOTION_DDOT":0},{"OBJECT_NAME":"STARLINK-35491","OBJECT_ID":"2025-236AD","EPOCH":"2026-03-09T12:22:19.493760","MEAN_MOTION":15.30202633,"ECCENTRICITY":0.00011205,"INCLINATION":53.1579,"RA_OF_ASC_NODE":104.9837,"ARG_OF_PERICENTER":75.3909,"MEAN_ANOMALY":284.7216,"EPHEMERIS_TYPE":0,"CLASSIFICATION_TYPE":"U","NORAD_CAT_ID":66113,"ELEMENT_SET_NO":999,"REV_AT_EPOCH":2291,"BSTAR":0.0010876448,"MEAN_MOTION_DOT":0.00031995,"MEAN_MOTION_DDOT":0}]
